0 DELTA 1 DEB
1 07092U 73086CL  13282.92844208 -.00000153  00000-0 -24370-3 0  2954
2 07092 101.8361 058.2767 0319708 145.4699 338.4299 13.05466183898012
0 DELTA 1 DEB
1 07092U 73086CL  13286.36379596 -.00000250  00000-0 -47846-3 0  2972
2 07092 101.8365 062.0497 0319582 138.2122 283.4705 13.05466714898460
0 DELTA 1 DEB
1 07092U 73086CL  13287.90982117 -.00000091  00000-0 -95994-4 0  2984
2 07092 101.8364 063.7478 0319510 134.9460 349.2892 13.05465703898662
0 DELTA 1 DEB
1 07092U 73086CL  13289.90233030  .00000096  00000-0  35469-3 0  2993
2 07092 101.8364 065.9357 0319417 130.7303 353.4440 13.05464125898920
0 DELTA 1 DEB
1 07092U 73086CL  13291.34469113  .00000276  00000-0  78708-3 0  3003
2 07092 101.8365 067.5197 0319318 127.6852 292.0671 13.05463167899116
0 DELTA 1 DEB
1 07092U 73086CL  13292.65044167  .00000442  00000-0  11850-2 0  3016
2 07092 101.8365 068.9535 0319300 124.9210 308.6702 13.05462800899286
0 DELTA 1 DEB
1 07092U 73086CL  13294.19400728  .00000530  00000-0  13972-2 0  3022
2 07092 101.8367 070.6486 0319239 121.6528 002.9225 13.05463524899480
0 DELTA 1 DEB
1 07092U 73086CL  13295.32960549  .00000562  00000-0  14730-2 0  3039
2 07092 101.8368 071.8957 0319237 119.2463 299.8641 13.05464733899635
